ORBCOMM FM33            
1 25983U 99065D   24204.90692766  .00002995  00000+0  10271-2 0  9990
2 25983  45.0285 122.2525 0007604 209.1429 150.8996 14.37991437288639
ORBCOMM FM36            
1 25984U 99065E   24205.47116636  .00003044  00000+0  10882-2 0  9995
2 25984  45.0375 206.3357 0001853  41.9871 318.1119 14.35903918287720
ORBCOMM FM35            
1 25985U 99065F   24205.11948757  .00001824  00000+0  67845-3 0  9990
2 25985  45.0385 210.9077 0003563 228.3386 131.7157 14.35394963287662
ORBCOMM FM34            
1 25986U 99065G   24204.46493190  .00001825  00000+0  67923-3 0  9992
2 25986  45.0381 214.5434 0001657 159.3932 200.6982 14.35370589287499
ORBCOMM FM38            
1 33060U 08031A   24205.33330015  .00004641  00000+0  66396-3 0  9992
2 33060  48.4410  78.9215 0005070  72.2482 287.8985 14.78036370866033
ORBCOMM FM41            
1 33061U 08031B   24205.42466477  .00004647  00000+0  66904-3 0  9996
2 33061  48.4446  85.2851 0004256  56.7137 113.5363 14.77759503865997
ORBCOMM FM29            
1 33062U 08031C   24205.14268927  .00004712  00000+0  67878-3 0  9990
2 33062  48.4397  94.6557 0006134  53.4263 102.0597 14.77707708865814
ORBCOMM FM39            
1 33063U 08031D   24205.19808422  .00004217  00000+0  62573-3 0  9993
2 33063  48.4407 115.4851 0007225  26.6219 333.5065 14.76644444865548
